[{"OBJECT_NAME":"STARLINK-4775","OBJECT_ID":"2022-119BA","EPOCH":"2026-03-09T22:45:39.789216","MEAN_MOTION":15.08826653,"ECCENTRICITY":0.00010866,"INCLINATION":53.2175,"RA_OF_ASC_NODE":298.0094,"ARG_OF_PERICENTER":91.4028,"MEAN_ANOMALY":268.7088,"EPHEMERIS_TYPE":0,"CLASSIFICATION_TYPE":"U","NORAD_CAT_ID":53934,"ELEMENT_SET_NO":999,"REV_AT_EPOCH":19209,"BSTAR":0.00014052726,"MEAN_MOTION_DOT":1.949e-5,"MEAN_MOTION_DDOT":0},{"OBJECT_NAME":"SEDNA-2","OBJECT_ID":"2025-009DQ","EPOCH":"2026-03-09T19:10:28.282944","MEAN_MOTION":15.10492622,"ECCENTRICITY":0.0010309,"INCLINATION":97.4615,"RA_OF_ASC_NODE":144.8075,"ARG_OF_PERICENTER":53.026,"MEAN_ANOMALY":307.1912,"EPHEMERIS_TYPE":0,"CLASSIFICATION_TYPE":"U","NORAD_CAT_ID":63153,"ELEMENT_SET_NO":999,"REV_AT_EPOCH":6311,"BSTAR":0.00049393403,"MEAN_MOTION_DOT":8.085e-5,"MEAN_MOTION_DDOT":0}]
